PERSEUS-M1              
1 40039U 14033AF  26158.73662502  .00002520  00000+0  23216-3 0  9995
2 40039  97.9642 102.7138 0010804 337.5160  22.5585 14.95606831649228
POLYITAN-1              
1 40042U 14033AJ  26158.58824355  .00018293  00000+0  57680-3 0  9994
2 40042  98.0953 183.9437 0007933 169.6269 190.5136 15.32921473652120
TIGRISAT                
1 40043U 14033AK  26158.68338074  .00002773  00000+0  32300-3 0  9992
2 40043  97.7825 308.9139 0050710 105.5301 255.1521 14.85125541644216
AEROCUBE 6A             
1 40045U 14033AM  26158.73914514  .00006730  00000+0  56576-3 0  9997
2 40045  97.7225 325.7893 0039381  49.2354 311.2275 14.98005767645200
AEROCUBE 6B             
1 40046U 14033AN  26158.41703620  .00007324  00000+0  59251-3 0  9990
2 40046  97.7228 325.2385 0039050  42.3827 318.0401 14.99463054645290
CANX-4                  
1 40055U 14034C   26158.62721970  .00001184  00000+0  15914-3 0  9998
2 40055  98.3133  33.5889 0013773  46.0700 314.1646 14.81248196643111
CANX-5                  
1 40056U 14034D   26158.62576368  .00001190  00000+0  15984-3 0  9992
2 40056  98.3136  33.6304 0013767  46.2377 313.9971 14.81265325633922
UKUBE-1                 
1 40074U 14037F   26158.64786591  .00008908  00000+0  50306-3 0  9999
2 40074  98.4242 160.9187 0002056 144.3716 215.7650 15.13401371647118
BRITE-PL2 (HEWELIUSZ)   
1 40119U 14049B   26158.26377524  .00003014  00000+0  28361-3 0  9991
2 40119  97.9087 270.1883 0015105 138.2185 222.0191 14.94560188639962
AEROCUBE 5C             
1 40965U 15058B   26158.78328833  .00003263  00000+0  29173-3 0  9995
2 40965  64.7679 291.8442 0130387  66.9648 294.5152 14.91410167364258
AEROCUBE 7              
1 40966U 15058C   26158.67270441  .00004260  00000+0  34427-3 0  9991
2 40966  64.7628 274.6159 0120113  65.4910 295.8672 14.95665181364533
FOX-1A (AO-85)          
1 40967U 15058D   26158.76074733  .00003179  00000+0  28859-3 0  9998
2 40967  64.7762 308.2774 0129935  60.2802 301.1167 14.90923768112167
SINOD-D 1               
1 40968U 15058E   26158.71865275  .00004342  00000+0  35022-3 0  9996
2 40968  64.7758 288.5630 0118500  56.8567 304.3850 14.95844977115244
SNAP-3 ALICE            
1 40970U 15058G   26158.67992148  .00123003  00000+0  15795-2 0  9994
2 40970  64.7501 136.7414 0030877  17.6772 342.5439 15.57914233115407
LMRST-SAT               
1 40971U 15058H   26158.71365689  .00003239  00000+0  29543-3 0  9999
2 40971  64.7766 304.7437 0131592  62.3235 299.1159 14.90547366112149
SNAP-3 EDDIE            
1 40972U 15058J   26158.29250816  .00109217  00000+0  13487-2 0  9990
2 40972  64.7421 128.8729 0030718  21.8774 338.3674 15.59001703117489
PROPCUBE 3              
1 40973U 15058K   26158.77246674  .00003824  00000+0  32023-3 0  9996
2 40973  64.7694 281.9498 0123617  63.6528 297.7217 14.94205306113398
BISONSAT                
1 40974U 15058L   26158.46848638  .00010253  00000+0  50096-3 0  9995
2 40974  64.7587 205.0602 0078343  51.2611 309.5481 15.15991596114141
SNAP-3 JIMI             
1 40975U 15058M   26158.60303012  .00005594  00000+0  38730-3 0  9997
2 40975  64.7649 250.0943 0105647  59.2946 301.8529 15.02216903112780
PROPCUBE 1 (FLORA)      
1 40976U 15058N   26158.72703492  .00003258  00000+0  30886-3 0  9996
2 40976  64.7758 324.5545 0130313  64.6295 296.8242 14.89177557114852
SINOD-D 3               
1 40977U 15058P   26158.73566797  .00004434  00000+0  37544-3 0  9998
2 40977  64.7736 305.3320 0118827  61.8992 299.4072 14.93956071113340
HORYU-4                 
1 41340U 16012D   26158.66010671  .00317249  00000+0  10211-2 0  9993
2 41340  30.9848 148.6331 0002832 206.9121 153.1392 15.89027763569291
RAVAN                   
1 41849U 16067B   26158.77263749  .00053185  00000+0  82617-3 0  9991
2 41849  97.9898  47.2628 0005738  57.5249 302.6556 15.53777871526238
CELTEE 1                
1 41850U 16067C   26158.59350628  .00006003  00000+0  28566-3 0  9996
2 41850  98.0684  24.5061 0000604  94.7001 265.4301 15.19589092524421
OPTICUBE 04             
1 41851U 16067D   26158.53453389  .00003301  00000+0  20912-3 0  9994
2 41851  98.0710  10.3146 0016365 146.2046 214.0228 15.09619511523710
AEROCUBE 8D             
1 41852U 16067E   26158.57157102  .00008361  00000+0  34566-3 0  9994
2 41852  98.0697  28.0115 0004079 147.9169 212.2316 15.24264293524607
AEROCUBE 8C             
1 41853U 16067F   26158.59812134  .00008324  00000+0  34148-3 0  9995
2 41853  98.0568  25.2800 0006814  94.5133 265.6881 15.24510037524601
CORVUS BC2              
1 42846U 17042X   26158.36300855  .00003412  00000+0  23617-3 0  9991
2 42846  97.4064 320.0966 0014175 140.1884 220.0387 15.06234837485587
CORVUS BC1              
1 42847U 17042Y   26158.42515367  .00003217  00000+0  22200-3 0  9995
2 42847  97.4088 320.9640 0013340 118.9612 241.2955 15.06402708485622
MAKERSAT 0              
1 43016U 17073D   26158.64340437  .00021201  00000+0  58054-3 0  9995
2 43016  97.4640  41.0894 0106135 307.5668  51.5969 15.31756990465009
